IRIDIUM 112             
1 41925U 17003J   25320.33956264  .00000424  00000+0  14422-3 0  9997
2 41925  86.3999 177.2353 0002146  82.0472 278.0967 14.34217074462768
IRIDIUM 111             
1 41926U 17003K   25320.32686933  .00000246  00000+0  80907-4 0  9994
2 41926  86.3998 177.3064 0001985  83.9459 276.1963 14.34221412462747
IRIDIUM 113             
1 42803U 17039A   25319.67891885  .00000338  00000+0  11351-3 0  9996
2 42803  86.3989  51.4037 0002077  92.6610 267.4823 14.34221270440581
IRIDIUM 123             
1 42804U 17039B   25319.44132397  .00000292  00000+0  97365-4 0  9997
2 42804  86.3950  82.9908 0001707  93.6309 266.5082 14.34220652439310
IRIDIUM 120             
1 42805U 17039C   25319.67258012  .00000535  00000+0  18402-3 0  9990
2 42805  86.3980  51.2164 0002034 105.7676 254.3744 14.34216097440571
IRIDIUM 115             
1 42806U 17039D   25319.71825096  .00000726  00000+0  20979-3 0  9992
2 42806  86.4518  51.2968 0001581 102.0507 258.0871 14.43271850443473
IRIDIUM 118             
1 42807U 17039E   25319.75211205  .00000643  00000+0  22261-3 0  9992
2 42807  86.3958  82.8598 0002053  88.6679 271.4752 14.34215201439351
IRIDIUM 117             
1 42808U 17039F   25319.63160436  .00000364  00000+0  12279-3 0  9997
2 42808  86.3953  82.8703 0001844  91.4662 268.6745 14.34212345439363
